[{"OBJECT_NAME":"SPOT 7","OBJECT_ID":"2014-034A","EPOCH":"2026-03-09T22:30:32.970240","MEAN_MOTION":14.60861606,"ECCENTRICITY":0.00013975,"INCLINATION":98.074,"RA_OF_ASC_NODE":133.9442,"ARG_OF_PERICENTER":99.9915,"MEAN_ANOMALY":260.1443,"EPHEMERIS_TYPE":0,"CLASSIFICATION_TYPE":"U","NORAD_CAT_ID":40053,"ELEMENT_SET_NO":999,"REV_AT_EPOCH":62264,"BSTAR":0.00013040452,"MEAN_MOTION_DOT":5.92e-6,"MEAN_MOTION_DDOT":0},{"OBJECT_NAME":"CZ-6A DEB","OBJECT_ID":"2024-140TY","EPOCH":"2026-03-09T15:25:48.532512","MEAN_MOTION":14.77098477,"ECCENTRICITY":0.0162256,"INCLINATION":89.1158,"RA_OF_ASC_NODE":288.8548,"ARG_OF_PERICENTER":182.348,"MEAN_ANOMALY":177.7001,"EPHEMERIS_TYPE":0,"CLASSIFICATION_TYPE":"U","NORAD_CAT_ID":61311,"ELEMENT_SET_NO":999,"REV_AT_EPOCH":8223,"BSTAR":0.00066942,"MEAN_MOTION_DOT":5.907e-5,"MEAN_MOTION_DDOT":0}]
